{
    "week": 295,
    "satellites": [
        {
            "Name": "GSAT0208 (GALILEO 11)",
            "Line1": "1 41175U 15079B   24334.96522619  .00000050  00000+0  00000+0 0  9999",
            "Line2": "2 41175  55.5042 116.7565 0001374   1.8309 358.1342  1.70474333 55578",
            "SatelliteNumber": "41175",
            "Classification": "U",
            "LaunchYear": "15",
            "LaunchNumber": "079",
            "PieceOfLaunch": "B",
            "EpochYear": "24",
            "EpochDay": 334.96522619,
            "FirstDerivativeMeanMotion": 5e-07,
            "SecondDerivativeMeanMotion": "00000+0",
            "BSTAR": "00000+0",
            "SetNumber": "999",
            "Inclination": 55.5042,
            "RAAN": 116.7565,
            "Eccentricity": 0.0001374,
            "ArgumentOfPerigee": 1.8309,
            "MeanAnomaly": 358.1342,
            "MeanMotion": 1.70474333,
            "RevolutionNumber": "5557"
        },
        {
            "Name": "GSAT0211 (GALILEO 14)",
            "Line1": "1 41549U 16030A   24333.91533512  .00000010  00000+0  00000+0 0  9996",
            "Line2": "2 41549  55.2937 237.2453 0003722 353.7929   6.2625  1.70473138 53018",
            "SatelliteNumber": "41549",
            "Classification": "U",
            "LaunchYear": "16",
            "LaunchNumber": "030",
            "PieceOfLaunch": "A",
            "EpochYear": "24",
            "EpochDay": 333.91533512,
            "FirstDerivativeMeanMotion": 1e-07,
            "SecondDerivativeMeanMotion": "00000+0",
            "BSTAR": "00000+0",
            "SetNumber": "999",
            "Inclination": 55.2937,
            "RAAN": 237.2453,
            "Eccentricity": 0.0003722,
            "ArgumentOfPerigee": 353.7929,
            "MeanAnomaly": 6.2625,
            "MeanMotion": 1.70473138,
            "RevolutionNumber": "5301"
        },
        {
            "Name": "GSAT0210 (GALILEO 13)",
            "Line1": "1 41550U 16030B   24334.17331519  .00000012  00000+0  00000+0 0  9992",
            "Line2": "2 41550  55.2927 237.2366 0001317 247.9019 112.1460  1.70473559 53015",
            "SatelliteNumber": "41550",
            "Classification": "U",
            "LaunchYear": "16",
            "LaunchNumber": "030",
            "PieceOfLaunch": "B",
            "EpochYear": "24",
            "EpochDay": 334.17331519,
            "FirstDerivativeMeanMotion": 1.2e-07,
            "SecondDerivativeMeanMotion": "00000+0",
            "BSTAR": "00000+0",
            "SetNumber": "999",
            "Inclination": 55.2927,
            "RAAN": 237.2366,
            "Eccentricity": 0.0001317,
            "ArgumentOfPerigee": 247.9019,
            "MeanAnomaly": 112.146,
            "MeanMotion": 1.70473559,
            "RevolutionNumber": "5301"
        },
        {
            "Name": "GSAT0207 (GALILEO 15)",
            "Line1": "1 41859U 16069A   24332.69256333  .00000052  00000+0  00000+0 0  9995",
            "Line2": "2 41859  55.1702 116.7828 0001767 311.8311  48.1294  1.70474473 49740",
            "SatelliteNumber": "41859",
            "Classification": "U",
            "LaunchYear": "16",
            "LaunchNumber": "069",
            "PieceOfLaunch": "A",
            "EpochYear": "24",
            "EpochDay": 332.69256333,
            "FirstDerivativeMeanMotion": 5.2e-07,
            "SecondDerivativeMeanMotion": "00000+0",
            "BSTAR": "00000+0",
            "SetNumber": "999",
            "Inclination": 55.1702,
            "RAAN": 116.7828,
            "Eccentricity": 0.0001767,
            "ArgumentOfPerigee": 311.8311,
            "MeanAnomaly": 48.1294,
            "MeanMotion": 1.70474473,
            "RevolutionNumber": "4974"
        },
        {
            "Name": "GSAT0212 (GALILEO 16)",
            "Line1": "1 41860U 16069B   24334.30640670  .00000050  00000+0  00000+0 0  9996",
            "Line2": "2 41860  55.1712 116.7341 0001656  32.1765 327.8012  1.70474690 50025",
            "SatelliteNumber": "41860",
            "Classification": "U",
            "LaunchYear": "16",
            "LaunchNumber": "069",
            "PieceOfLaunch": "B",
            "EpochYear": "24",
            "EpochDay": 334.3064067,
            "FirstDerivativeMeanMotion": 5e-07,
            "SecondDerivativeMeanMotion": "00000+0",
            "BSTAR": "00000+0",
            "SetNumber": "999",
            "Inclination": 55.1712,
            "RAAN": 116.7341,
            "Eccentricity": 0.0001656,
            "ArgumentOfPerigee": 32.1765,
            "MeanAnomaly": 327.8012,
            "MeanMotion": 1.7047469,
            "RevolutionNumber": "5002"
        },
        {
            "Name": "GSAT0213 (GALILEO 17)",
            "Line1": "1 41861U 16069C   24334.08810993  .00000050  00000+0  00000+0 0  9999",
            "Line2": "2 41861  55.1702 116.7472 0002046 265.1607  94.7847  1.70474998 49886",
            "SatelliteNumber": "41861",
            "Classification": "U",
            "LaunchYear": "16",
            "LaunchNumber": "069",
            "PieceOfLaunch": "C",
            "EpochYear": "24",
            "EpochDay": 334.08810993,
            "FirstDerivativeMeanMotion": 5e-07,
            "SecondDerivativeMeanMotion": "00000+0",
            "BSTAR": "00000+0",
            "SetNumber": "999",
            "Inclination": 55.1702,
            "RAAN": 116.7472,
            "Eccentricity": 0.0002046,
            "ArgumentOfPerigee": 265.1607,
            "MeanAnomaly": 94.7847,
            "MeanMotion": 1.70474998,
            "RevolutionNumber": "4988"
        },
        {
            "Name": "GSAT0214 (GALILEO 18)",
            "Line1": "1 41862U 16069D   24334.82011656  .00000049  00000+0  00000+0 0  9999",
            "Line2": "2 41862  55.1697 116.7202 0001130 259.9377 100.0150  1.70474772 50025",
            "SatelliteNumber": "41862",
            "Classification": "U",
            "LaunchYear": "16",
            "LaunchNumber": "069",
            "PieceOfLaunch": "D",
            "EpochYear": "24",
            "EpochDay": 334.82011656,
            "FirstDerivativeMeanMotion": 4.9e-07,
            "SecondDerivativeMeanMotion": "00000+0",
            "BSTAR": "00000+0",
            "SetNumber": "999",
            "Inclination": 55.1697,
            "RAAN": 116.7202,
            "Eccentricity": 0.000113,
            "ArgumentOfPerigee": 259.9377,
            "MeanAnomaly": 100.015,
            "MeanMotion": 1.70474772,
            "RevolutionNumber": "5002"
        },
        {
            "Name": "GSAT0215 (GALILEO 19)",
            "Line1": "1 43055U 17079A   24332.96367047  .00000002  00000+0  00000+0 0  9997",
            "Line2": "2 43055  55.2710 237.0910 0001527 318.3517  41.6904  1.70473830 43334",
            "SatelliteNumber": "43055",
            "Classification": "U",
            "LaunchYear": "17",
            "LaunchNumber": "079",
            "PieceOfLaunch": "A",
            "EpochYear": "24",
            "EpochDay": 332.96367047,
            "FirstDerivativeMeanMotion": 2e-08,
            "SecondDerivativeMeanMotion": "00000+0",
            "BSTAR": "00000+0",
            "SetNumber": "999",
            "Inclination": 55.271,
            "RAAN": 237.091,
            "Eccentricity": 0.0001527,
            "ArgumentOfPerigee": 318.3517,
            "MeanAnomaly": 41.6904,
            "MeanMotion": 1.7047383,
            "RevolutionNumber": "4333"
        },
        {
            "Name": "GSAT0216 (GALILEO 20)",
            "Line1": "1 43056U 17079B   24334.42843059  .00000015  00000+0  00000+0 0  9997",
            "Line2": "2 43056  55.2708 237.0507 0002931 307.8470  52.1907  1.70473948 43379",
            "SatelliteNumber": "43056",
            "Classification": "U",
            "LaunchYear": "17",
            "LaunchNumber": "079",
            "PieceOfLaunch": "B",
            "EpochYear": "24",
            "EpochDay": 334.42843059,
            "FirstDerivativeMeanMotion": 1.5e-07,
            "SecondDerivativeMeanMotion": "00000+0",
            "BSTAR": "00000+0",
            "SetNumber": "999",
            "Inclination": 55.2708,
            "RAAN": 237.0507,
            "Eccentricity": 0.0002931,
            "ArgumentOfPerigee": 307.847,
            "MeanAnomaly": 52.1907,
            "MeanMotion": 1.70473948,
            "RevolutionNumber": "4337"
        },
        {
            "Name": "GSAT0217 (GALILEO 21)",
            "Line1": "1 43057U 17079C   24335.23554747  .00000021  00000+0  00000+0 0  9998",
            "Line2": "2 43057  55.2687 237.0269 0003130 322.5165  37.5320  1.70473937 43372",
            "SatelliteNumber": "43057",
            "Classification": "U",
            "LaunchYear": "17",
            "LaunchNumber": "079",
            "PieceOfLaunch": "C",
            "EpochYear": "24",
            "EpochDay": 335.23554747,
            "FirstDerivativeMeanMotion": 2.1e-07,
            "SecondDerivativeMeanMotion": "00000+0",
            "BSTAR": "00000+0",
            "SetNumber": "999",
            "Inclination": 55.2687,
            "RAAN": 237.0269,
            "Eccentricity": 0.000313,
            "ArgumentOfPerigee": 322.5165,
            "MeanAnomaly": 37.532,
            "MeanMotion": 1.70473937,
            "RevolutionNumber": "4337"
        }
    ]
}